{"type": "FeatureCollection", "features": [ {"type": "Feature", "properties": {"norad_id": 66335, "name": "STARLINK-35417", "group": "last-30-days", "lat": -18.363469661433243, "lon": -118.36589970944746, "alt_km": 445.6330728930152, "timestamp": "2025-12-03T04:52:28.418843+00:00", "meta": {"OBJECT_NAME": "STARLINK-35417", "OBJECT_ID": "2025-253S", "EPOCH": "2025-12-02T20:00:03.000384", "MEAN_MOTION": 15.40662438, "ECCENTRICITY": 0.000139, "INCLINATION": 43.0009, "RA_OF_ASC_NODE": 42.8974, "ARG_OF_PERICENTER": 277.3229, "MEAN_ANOMALY": 36.9782, "EPHEMERIS_TYPE": 0, "CLASSIFICATION_TYPE": "U", "NORAD_CAT_ID": 66335, "ELEMENT_SET_NO": 999, "REV_AT_EPOCH": 533, "BSTAR": 0.00045327, "MEAN_MOTION_DOT": 0.00018653, "MEAN_MOTION_DDOT": 0}, "tle": {"line1": "1 66335U 25253S   25336.83336806  .00018653  00000+0  45327-3 0  9992", "line2": "2 66335  43.0009  42.8974 0001390 277.3229  36.9782 15.40662438  5335"}}, "geometry": {"type": "Point", "coordinates": [-118.36589970944746, -18.363469661433243]}}, {"type": "Feature", "properties": {"norad_id": 66336, "name": "STARLINK-35404", "group": "last-30-days", "lat": -10.045785316527146, "lon": 29.47100905552685, "alt_km": 414.9350565222585, "timestamp": "2025-12-03T04:52:28.418854+00:00", "meta": {"OBJECT_NAME": "STARLINK-35404", "OBJECT_ID": "2025-253T", "EPOCH": "2025-12-02T05:45:07.240032", "MEAN_MOTION": 15.50663874, "ECCENTRICITY": 0.0001575, "INCLINATION": 42.9999, "RA_OF_ASC_NODE": 46.0686, "ARG_OF_PERICENTER": 253.9948, "MEAN_ANOMALY": 106.0739, "EPHEMERIS_TYPE": 0, "CLASSIFICATION_TYPE": "U", "NORAD_CAT_ID": 66336, "ELEMENT_SET_NO": 999, "REV_AT_EPOCH": 530, "BSTAR": 0.0021834, "MEAN_MOTION_DOT": 0.00130295, "MEAN_MOTION_DDOT": 0}, "tle": {"line1": "1 66336U 25253T   25336.23966713  .00130295  00000+0  21834-2 0  9996", "line2": "2 66336  42.9999  46.0686 0001575 253.9948 106.0739 15.50663874  5305"}}, "geometry": {"type": "Point", "coordinates": [29.47100905552685, -10.045785316527146]}}, {"type": "Feature", "properties": {"norad_id": 66337, "name": "STARLINK-34783", "group": "last-30-days", "lat": -32.67656046078238, "lon": -95.79843319538898, "alt_km": 446.30248438327453, "timestamp": "2025-12-03T04:52:28.418864+00:00", "meta": {"OBJECT_NAME": "STARLINK-34783", "OBJECT_ID": "2025-253U", "EPOCH": "2025-12-02T20:00:03.000384", "MEAN_MOTION": 15.406692, "ECCENTRICITY": 0.0001403, "INCLINATION": 43.0008, "RA_OF_ASC_NODE": 42.8371, "ARG_OF_PERICENTER": 276.3732, "MEAN_ANOMALY": 62.7805, "EPHEMERIS_TYPE": 0, "CLASSIFICATION_TYPE": "U", "NORAD_CAT_ID": 66337, "ELEMENT_SET_NO": 999, "REV_AT_EPOCH": 538, "BSTAR": 0.00048404, "MEAN_MOTION_DOT": 0.00019948, "MEAN_MOTION_DDOT": 0}, "tle": {"line1": "1 66337U 25253U   25336.83336806  .00019948  00000+0  48404-3 0  9991", "line2": "2 66337  43.0008  42.8371 0001403 276.3732  62.7805 15.40669200  5382"}}, "geometry": {"type": "Point", "coordinates": [-95.79843319538898, -32.67656046078238]}}, {"type": "Feature", "properties": {"norad_id": 66338, "name": "STARLINK-35477", "group": "last-30-days", "lat": -10.208904249404021, "lon": -128.05920118871163, "alt_km": 444.7904253440147, "timestamp": "2025-12-03T04:52:28.418875+00:00", "meta": {"OBJECT_NAME": "STARLINK-35477", "OBJECT_ID": "2025-253V", "EPOCH": "2025-12-02T20:00:03.000384", "MEAN_MOTION": 15.40663486, "ECCENTRICITY": 9.85e-05, "INCLINATION": 43.0007, "RA_OF_ASC_NODE": 42.9291, "ARG_OF_PERICENTER": 255.2676, "MEAN_ANOMALY": 46.5646, "EPHEMERIS_TYPE": 0, "CLASSIFICATION_TYPE": "U", "NORAD_CAT_ID": 66338, "ELEMENT_SET_NO": 999, "REV_AT_EPOCH": 543, "BSTAR": 0.00054268, "MEAN_MOTION_DOT": 0.00022404, "MEAN_MOTION_DDOT": 0}, "tle": {"line1": "1 66338U 25253V   25336.83336806  .00022404  00000+0  54268-3 0  9998", "line2": "2 66338  43.0007  42.9291 0000985 255.2676  46.5646 15.40663486  5430"}}, "geometry": {"type": "Point", "coordinates": [-128.05920118871163, -10.208904249404021]}}, {"type": "Feature", "properties": {"norad_id": 66339, "name": "STARLINK-35443", "group": "last-30-days", "lat": -13.413018821008482, "lon": 25.615462391756775, "alt_km": 435.23371388818305, "timestamp": "2025-12-03T04:52:28.418885+00:00", "meta": {"OBJECT_NAME": "STARLINK-35443", "OBJECT_ID": "2025-253W", "EPOCH": "2025-12-02T20:00:03.000384", "MEAN_MOTION": 15.45597965, "ECCENTRICITY": 0.0001476, "INCLINATION": 43.0004, "RA_OF_ASC_NODE": 42.5872, "ARG_OF_PERICENTER": 287.8045, "MEAN_ANOMALY": 153.7556, "EPHEMERIS_TYPE": 0, "CLASSIFICATION_TYPE": "U", "NORAD_CAT_ID": 66339, "ELEMENT_SET_NO": 999, "REV_AT_EPOCH": 538, "BSTAR": -0.047182, "MEAN_MOTION_DOT": -0.02065814, "MEAN_MOTION_DDOT": 0}, "tle": {"line1": "1 66339U 25253W   25336.83336806 -.02065814  00000+0 -47182-1 0  9990", "line2": "2 66339  43.0004  42.5872 0001476 287.8045 153.7556 15.45597965  5384"}}, "geometry": {"type": "Point", "coordinates": [25.615462391756775, -13.413018821008482]}}, {"type": "Feature", "properties": {"norad_id": 66340, "name": "STARLINK-35218", "group": "last-30-days", "lat": -8.77554270701818, "lon": 30.889873607683985, "alt_km": 414.7366069811969, "timestamp": "2025-12-03T04:52:28.418896+00:00", "meta": {"OBJECT_NAME": "STARLINK-35218", "OBJECT_ID": "2025-253X", "EPOCH": "2025-12-02T05:44:37.704192", "MEAN_MOTION": 15.50658934, "ECCENTRICITY": 0.0001723, "INCLINATION": 43.0002, "RA_OF_ASC_NODE": 46.0659, "ARG_OF_PERICENTER": 259.1035, "MEAN_ANOMALY": 100.9632, "EPHEMERIS_TYPE": 0, "CLASSIFICATION_TYPE": "U", "NORAD_CAT_ID": 66340, "ELEMENT_SET_NO": 999, "REV_AT_EPOCH": 530, "BSTAR": 0.0021881, "MEAN_MOTION_DOT": 0.00130561, "MEAN_MOTION_DDOT": 0}, "tle": {"line1": "1 66340U 25253X   25336.23932528  .00130561  00000+0  21881-2 0  9996", "line2": "2 66340  43.0002  46.0659 0001723 259.1035 100.9632 15.50658934  5303"}}, "geometry": {"type": "Point", "coordinates": [30.889873607683985, -8.77554270701818]}}, {"type": "Feature", "properties": {"norad_id": 66341, "name": "STARLINK-35522", "group": "last-30-days", "lat": -14.019141054242255, "lon": 24.905276075282238, "alt_km": 415.413785816987, "timestamp": "2025-12-03T04:52:28.418906+00:00", "meta": {"OBJECT_NAME": "STARLINK-35522", "OBJECT_ID": "2025-253Y", "EPOCH": "2025-12-02T05:46:36.245856", "MEAN_MOTION": 15.50639914, "ECCENTRICITY": 0.0001588, "INCLINATION": 43.0002, "RA_OF_ASC_NODE": 46.079, "ARG_OF_PERICENTER": 262.4563, "MEAN_ANOMALY": 97.6117, "EPHEMERIS_TYPE": 0, "CLASSIFICATION_TYPE": "U", "NORAD_CAT_ID": 66341, "ELEMENT_SET_NO": 999, "REV_AT_EPOCH": 530, "BSTAR": 0.0014366, "MEAN_MOTION_DOT": 0.00085041, "MEAN_MOTION_DDOT": 0}, "tle": {"line1": "1 66341U 25253Y   25336.24069729  .00085041  00000+0  14366-2 0  9994", "line2": "2 66341  43.0002  46.0790 0001588 262.4563  97.6117 15.50639914  5309"}}, "geometry": {"type": "Point", "coordinates": [24.905276075282238, -14.019141054242255]}}, {"type": "Feature", "properties": {"norad_id": 66342, "name": "STARLINK-35535", "group": "last-30-days", "lat": -38.344343863030225, "lon": -17.53169040135408, "alt_km": 446.2759929160229, "timestamp": "2025-12-03T04:52:28.418917+00:00", "meta": {"OBJECT_NAME": "STARLINK-35535", "OBJECT_ID": "2025-253Z", "EPOCH": "2025-12-02T20:00:03.000384", "MEAN_MOTION": 15.40663767, "ECCENTRICITY": 0.0001483, "INCLINATION": 43.0006, "RA_OF_ASC_NODE": 42.6849, "ARG_OF_PERICENTER": 280.6357, "MEAN_ANOMALY": 120.7303, "EPHEMERIS_TYPE": 0, "CLASSIFICATION_TYPE": "U", "NORAD_CAT_ID": 66342, "ELEMENT_SET_NO": 999, "REV_AT_EPOCH": 533, "BSTAR": 0.00061374, "MEAN_MOTION_DOT": 0.00025388, "MEAN_MOTION_DDOT": 0}, "tle": {"line1": "1 66342U 25253Z   25336.83336806  .00025388  00000+0  61374-3 0  9993", "line2": "2 66342  43.0006  42.6849 0001483 280.6357 120.7303 15.40663767  5338"}}, "geometry": {"type": "Point", "coordinates": [-17.53169040135408, -38.344343863030225]}}, {"type": "Feature", "properties": {"norad_id": 66343, "name": "STARLINK-35467", "group": "last-30-days", "lat": -41.67017640665616, "lon": -66.59139994300362, "alt_km": 446.5928689276643, "timestamp": "2025-12-03T04:52:28.418927+00:00", "meta": {"OBJECT_NAME": "STARLINK-35467", "OBJECT_ID": "2025-253AA", "EPOCH": "2025-12-02T20:00:03.000384", "MEAN_MOTION": 15.40672905, "ECCENTRICITY": 0.0001196, "INCLINATION": 43.0008, "RA_OF_ASC_NODE": 42.7751, "ARG_OF_PERICENTER": 264.2131, "MEAN_ANOMALY": 99.8075, "EPHEMERIS_TYPE": 0, "CLASSIFICATION_TYPE": "U", "NORAD_CAT_ID": 66343, "ELEMENT_SET_NO": 999, "REV_AT_EPOCH": 533, "BSTAR": 0.00051619, "MEAN_MOTION_DOT": 0.000213, "MEAN_MOTION_DDOT": 0}, "tle": {"line1": "1 66343U 25253AA  25336.83336806  .00021300  00000+0  51619-3 0  9995", "line2": "2 66343  43.0008  42.7751 0001196 264.2131  99.8075 15.40672905  5339"}}, "geometry": {"type": "Point", "coordinates": [-66.59139994300362, -41.67017640665616]}}, {"type": "Feature", "properties": {"norad_id": 66344, "name": "STARLINK-35511", "group": "last-30-days", "lat": 2.756477250920786, "lon": 43.34367652060339, "alt_km": 413.97242820252814, "timestamp": "2025-12-03T04:52:28.418938+00:00", "meta": {"OBJECT_NAME": "STARLINK-35511", "OBJECT_ID": "2025-253AB", "EPOCH": "2025-12-02T11:51:12.786336", "MEAN_MOTION": 15.50673828, "ECCENTRICITY": 0.00012129, "INCLINATION": 43.0006, "RA_OF_ASC_NODE": 44.5324, "ARG_OF_PERICENTER": 250.7153, "MEAN_ANOMALY": 109.3576, "EPHEMERIS_TYPE": 0, "CLASSIFICATION_TYPE": "U", "NORAD_CAT_ID": 66344, "ELEMENT_SET_NO": 999, "REV_AT_EPOCH": 534, "BSTAR": 0.0018155448, "MEAN_MOTION_DOT": 0.00108013, "MEAN_MOTION_DDOT": 0}, "tle": {"line1": "1 66344U 25253AB  25336.49389799  .00108013  00000+0  18155-2 0  9991", "line2": "2 66344  43.0006  44.5324 0001212 250.7153 109.3576 15.50673828  5347"}}, "geometry": {"type": "Point", "coordinates": [43.34367652060339, 2.756477250920786]}}]}